[{"OBJECT_NAME":"STARLINK-32473","OBJECT_ID":"2024-216T","EPOCH":"2026-03-09T22:38:02.773824","MEAN_MOTION":15.27595792,"ECCENTRICITY":0.0002395,"INCLINATION":42.9993,"RA_OF_ASC_NODE":254.9523,"ARG_OF_PERICENTER":276.5576,"MEAN_ANOMALY":83.5003,"EPHEMERIS_TYPE":0,"CLASSIFICATION_TYPE":"U","NORAD_CAT_ID":62049,"ELEMENT_SET_NO":999,"REV_AT_EPOCH":7275,"BSTAR":0.0009634088,"MEAN_MOTION_DOT":0.00026357,"MEAN_MOTION_DDOT":0},{"OBJECT_NAME":"PUCP-SAT 1","OBJECT_ID":"2013-066AC","EPOCH":"2026-03-09T22:02:13.763904","MEAN_MOTION":15.29426022,"ECCENTRICITY":0.00136836,"INCLINATION":97.5787,"RA_OF_ASC_NODE":61.0032,"ARG_OF_PERICENTER":300.1183,"MEAN_ANOMALY":59.87,"EPHEMERIS_TYPE":0,"CLASSIFICATION_TYPE":"U","NORAD_CAT_ID":39442,"ELEMENT_SET_NO":999,"REV_AT_EPOCH":66907,"BSTAR":0.00088755185,"MEAN_MOTION_DOT":0.00025373,"MEAN_MOTION_DDOT":0}]
